{
"type": "FeatureCollection",
"name": "parcelle",
"crs": { "type": "name", "properties": { "name": "urn:ogc:def:crs:OGC:1.3:CRS84" } },
"features": [
{ "type": "Feature", "properties": { "fid": 2, "DN": 255, "zone": "Parcelle cultivée", "type_cult": "", "superf_ha": 2.0878 }, "geometry": { "type": "Polygon", "coordinates": [ [ [ 2.329444446526712, 6.397331236938397 ], [ 2.329085030813802, 6.397045575736037 ], [ 2.329061836301749, 6.397018557300628 ], [ 2.329053422555905, 6.397015689072907 ], [ 2.329004710610572, 6.396967691956976 ], [ 2.328976227602218, 6.396916821266319 ], [ 2.32896055865497, 6.396809167312742 ], [ 2.328961257005301, 6.39679442131547 ], [ 2.328954199833796, 6.396765575449201 ], [ 2.328955959068642, 6.396748081215772 ], [ 2.328952858469396, 6.396744760145247 ], [ 2.328953240626872, 6.396620404786447 ], [ 2.328957107959702, 6.396615692225806 ], [ 2.328954863529033, 6.396612719451944 ], [ 2.328952808399399, 6.396614525581656 ], [ 2.32895260997369, 6.396598025561284 ], [ 2.328957001638815, 6.396457047870317 ], [ 2.328968181383858, 6.396444761690963 ], [ 2.328960590650858, 6.396438032496214 ], [ 2.328960147610235, 6.3964310847213 ], [ 2.328977994421611, 6.396416790588096 ], [ 2.328981718326652, 6.396398686635607 ], [ 2.328980554629422, 6.396383249841215 ], [ 2.32899675885192, 6.396371933242493 ], [ 2.328985870485065, 6.396334871045354 ], [ 2.328976654747624, 6.396317640025457 ], [ 2.328982382893583, 6.396301908459438 ], [ 2.328975702457651, 6.396290510099364 ], [ 2.328981069307763, 6.396269152541748 ], [ 2.328976943267381, 6.396246823809518 ], [ 2.328967174783864, 6.396242761353687 ], [ 2.328965878195321, 6.396237313100678 ], [ 2.329005905297355, 6.396221264427968 ], [ 2.329028602907877, 6.396220987798285 ], [ 2.32903589804324, 6.39621361612096 ], [ 2.329044907421027, 6.396217611450036 ], [ 2.329054331643315, 6.396212735773169 ], [ 2.329064775188631, 6.396217869586263 ], [ 2.329083342572968, 6.396193963680415 ], [ 2.329080432773059, 6.396176507328881 ], [ 2.32906315149585, 6.396142353499982 ], [ 2.329061200857945, 6.396130077821894 ], [ 2.329050523215636, 6.396118894468955 ], [ 2.329030676238804, 6.396083976911203 ], [ 2.329027843807955, 6.396054516363018 ], [ 2.329017598055672, 6.396047913373585 ], [ 2.329015204282799, 6.396039682413263 ], [ 2.329009942659393, 6.396035564115039 ], [ 2.329004724711055, 6.39599154369523 ], [ 2.329001034715693, 6.39599673706721 ], [ 2.329001066310135, 6.396020393663242 ], [ 2.328994139244045, 6.396020096568665 ], [ 2.328990036859719, 6.395994492333947 ], [ 2.328995841977626, 6.395979795734508 ], [ 2.328994154002812, 6.395970257867346 ], [ 2.328997292543199, 6.395962726733319 ], [ 2.328985164092094, 6.395957882617383 ], [ 2.328984866315533, 6.395952994251991 ], [ 2.328990311998838, 6.395946670515823 ], [ 2.328969523167801, 6.395931268475377 ], [ 2.328970026579168, 6.395891927459813 ], [ 2.328976387396132, 6.395887449737395 ], [ 2.328992620808179, 6.3958972445046 ], [ 2.329004471104431, 6.395894546752428 ], [ 2.329007333663848, 6.395889983971654 ], [ 2.329004704156916, 6.395881464876363 ], [ 2.329008709796306, 6.395874782019918 ], [ 2.329001346962154, 6.395870714791544 ], [ 2.328983752189139, 6.395874675397735 ], [ 2.328979857665719, 6.395866789431421 ], [ 2.328988269009645, 6.395862125251191 ], [ 2.328997307081537, 6.395862400116622 ], [ 2.329006725850057, 6.39585593799116 ], [ 2.329019776108533, 6.395857552939801 ], [ 2.329033825450562, 6.395848685483986 ], [ 2.329059890904539, 6.395840493586805 ], [ 2.32908490018194, 6.395858528092344 ], [ 2.329100086845571, 6.395862703996694 ], [ 2.329109786773943, 6.395857881302947 ], [ 2.329122531558403, 6.395868442180953 ], [ 2.329124388541531, 6.39586516924024 ], [ 2.329117774510262, 6.39585806102 ], [ 2.329112675461961, 6.395843897637805 ], [ 2.329099427827445, 6.395844995200636 ], [ 2.329071157924391, 6.395830303196128 ], [ 2.329073849323689, 6.395827850114855 ], [ 2.329101207464292, 6.395829658622676 ], [ 2.329107693254091, 6.395824815116111 ], [ 2.329124370016632, 6.395824159534274 ], [ 2.329127231204026, 6.3958206478971 ], [ 2.329121582627706, 6.395813894107437 ], [ 2.329123840161273, 6.395808506622202 ], [ 2.329139371684998, 6.395816264593822 ], [ 2.329140929690871, 6.395827226674593 ], [ 2.3291483954386, 6.39583029466635 ], [ 2.32914934315346, 6.395837276506511 ], [ 2.329143320479018, 6.395853177889369 ], [ 2.329125907821171, 6.395850614464262 ], [ 2.3291272633372, 6.395862143230509 ], [ 2.32914063289647, 6.395878275840094 ], [ 2.329143954446736, 6.395890273619335 ], [ 2.329156828469242, 6.395895422924065 ], [ 2.329162982801829, 6.395903850298954 ], [ 2.329182500607385, 6.395912101680927 ], [ 2.329182915739902, 6.395931094755019 ], [ 2.329197314330946, 6.395953132614001 ], [ 2.32920358436568, 6.395943470091463 ], [ 2.329219805754859, 6.395939734748416 ], [ 2.329244256084884, 6.395953296737417 ], [ 2.329275786148188, 6.395951703950757 ], [ 2.329287274314856, 6.395959580829687 ], [ 2.329299959550271, 6.395960640668175 ], [ 2.329321100187386, 6.395954928489492 ], [ 2.329325889546281, 6.395959081723101 ], [ 2.329330999734498, 6.395975326100813 ], [ 2.329336650277109, 6.395977800240406 ], [ 2.32934532399302, 6.395974579263733 ], [ 2.329355119970911, 6.395963964307226 ], [ 2.329383772610738, 6.395959307136287 ], [ 2.329387015977681, 6.395954203393067 ], [ 2.329385239339302, 6.395944699382548 ], [ 2.329390850271286, 6.395919680760599 ], [ 2.32941614681347, 6.395917904944377 ], [ 2.329449755200986, 6.395922764744609 ], [ 2.329449548756593, 6.395910929300743 ], [ 2.329456706555077, 6.39590295091964 ], [ 2.329445014461382, 6.395882563181786 ], [ 2.329448122250571, 6.395879889570671 ], [ 2.329453848655857, 6.395882086042077 ], [ 2.32945809527356, 6.395878081556107 ], [ 2.32944201121301, 6.395861263716946 ], [ 2.329442227706952, 6.395845658467661 ], [ 2.329438944627777, 6.395843249142945 ], [ 2.329425068715373, 6.395846360459925 ], [ 2.329398189527572, 6.395844413710974 ], [ 2.329390954377403, 6.395837682555983 ], [ 2.329389891834719, 6.395828959075202 ], [ 2.329394018727754, 6.395824284268488 ], [ 2.329418075639259, 6.39582551398584 ], [ 2.329424944381564, 6.395822429536086 ], [ 2.329423503875575, 6.395815444453118 ], [ 2.32942782205995, 6.39580929848298 ], [ 2.329422027031042, 6.395801392178456 ], [ 2.329430451817154, 6.395797901418708 ], [ 2.329432423433863, 6.395788016172143 ], [ 2.329429283640996, 6.395783765719477 ], [ 2.329443573133765, 6.395782068867911 ], [ 2.329447356120792, 6.395777803364727 ], [ 2.329446860757337, 6.395770627271638 ], [ 2.329438496676508, 6.395759107000275 ], [ 2.329438143898841, 6.39574512000888 ], [ 2.329445088777485, 6.395742674621121 ], [ 2.329439426273628, 6.39573962322995 ], [ 2.329424482197254, 6.395718206162382 ], [ 2.329424487125983, 6.39571442439363 ], [ 2.32943109881069, 6.395712408164455 ], [ 2.329431119823878, 6.395707212038181 ], [ 2.329395581201597, 6.395692464898173 ], [ 2.329391895947602, 6.395678805816376 ], [ 2.329396785938863, 6.395676423318338 ], [ 2.32939589984492, 6.395662527767758 ], [ 2.329390461811295, 6.395655660469821 ], [ 2.329380697702582, 6.395654013358497 ], [ 2.32937181994582, 6.395641478972478 ], [ 2.329376868937546, 6.395631181826343 ], [ 2.329350419634094, 6.395588971070545 ], [ 2.329353189870767, 6.395584563329086 ], [ 2.32935893977655, 6.395587284048379 ], [ 2.329372016950478, 6.395602281579919 ], [ 2.329384416054742, 6.39562740509078 ], [ 2.329394030583459, 6.395634724895736 ], [ 2.329397798486964, 6.395631842153938 ], [ 2.329385141505675, 6.395602779391193 ], [ 2.329381082135544, 6.395595452587723 ], [ 2.329371754297826, 6.395589259481623 ], [ 2.329374839862822, 6.395583820901993 ], [ 2.329464808627635, 6.395583486043956 ], [ 2.329470190698877, 6.395588977270397 ], [ 2.329467888843307, 6.395593079651469 ], [ 2.329442327100585, 6.395599150095338 ], [ 2.329426372637804, 6.395616714507283 ], [ 2.329442996253796, 6.395641397372019 ], [ 2.329437134143387, 6.39565734243706 ], [ 2.329441522985354, 6.395672300315969 ], [ 2.329450181949641, 6.395650559901596 ], [ 2.32944529660976, 6.395638446015829 ], [ 2.329448974998927, 6.395620948006562 ], [ 2.32947132947613, 6.395617780876487 ], [ 2.329483196086926, 6.39563143960544 ], [ 2.329484298788603, 6.395651846316601 ], [ 2.329494914401792, 6.395670256408487 ], [ 2.329479972418713, 6.395687605876273 ], [ 2.329471589528737, 6.395690519058668 ], [ 2.329475363930508, 6.395703421833504 ], [ 2.329463371015602, 6.395712049942937 ], [ 2.329463302294585, 6.39576478183155 ], [ 2.329470891176064, 6.395772930482075 ], [ 2.329465982799125, 6.395789420339408 ], [ 2.329471389869253, 6.395803353553711 ], [ 2.329477768721747, 6.395809750486668 ], [ 2.329506519500654, 6.395800464231856 ], [ 2.329512807416461, 6.395805956639457 ], [ 2.329515593280806, 6.395815923665412 ], [ 2.329513145130924, 6.395829682880898 ], [ 2.329508375857624, 6.395831582414798 ], [ 2.329500204052279, 6.395829542947768 ], [ 2.329497512791409, 6.395822524183791 ], [ 2.329489599035133, 6.395819348440456 ], [ 2.329481439739436, 6.395817076783135 ], [ 2.329474841632853, 6.395821118618167 ], [ 2.329467555373173, 6.395814967404624 ], [ 2.329463368471734, 6.395816601010829 ], [ 2.329460424478558, 6.395825372399924 ], [ 2.329463202041996, 6.395841708131767 ], [ 2.32947432583705, 6.395846532725144 ], [ 2.329477566018074, 6.395854800172863 ], [ 2.329469866704159, 6.395865215223242 ], [ 2.32947370417174, 6.395874044294986 ], [ 2.329464592106846, 6.395879852887274 ], [ 2.329477001330244, 6.395885944760852 ], [ 2.3294821016461, 6.395898840164425 ], [ 2.329499811772592, 6.395915989214145 ], [ 2.329505929554263, 6.395917950032353 ], [ 2.32951762929575, 6.395901724752693 ], [ 2.329524994122487, 6.395902965932932 ], [ 2.329533813487774, 6.395898993863698 ], [ 2.329546000365809, 6.395904888398236 ], [ 2.329559036005729, 6.395895043185568 ], [ 2.329564245527578, 6.395894824838511 ], [ 2.329572159507171, 6.395881479959423 ], [ 2.329576542068456, 6.395881181454794 ], [ 2.329577659268028, 6.395895885620062 ], [ 2.329570704397887, 6.395905997536223 ], [ 2.329570696008895, 6.395912435542074 ], [ 2.329574865379532, 6.395913934097571 ], [ 2.329583050037898, 6.395908626352494 ], [ 2.32959516847254, 6.395916087850321 ], [ 2.329606567850103, 6.395915820257716 ], [ 2.329604913800674, 6.39592152699656 ], [ 2.329591888893267, 6.395927732836598 ], [ 2.329611496047469, 6.395937898382646 ], [ 2.329623268228997, 6.395939895061555 ], [ 2.329627778332359, 6.395945241123099 ], [ 2.329627251074462, 6.395954995023699 ], [ 2.329635566447018, 6.395980222525391 ], [ 2.329630231836163, 6.395993558955011 ], [ 2.329633425565119, 6.395998921783852 ], [ 2.329639088006307, 6.39599807738615 ], [ 2.329646927937008, 6.395990254206049 ], [ 2.32966998925107, 6.395987118853438 ], [ 2.32967126512079, 6.395993597310346 ], [ 2.329659795293056, 6.395996015886424 ], [ 2.329657837926187, 6.395999824389676 ], [ 2.329672987755277, 6.396004172745478 ], [ 2.329679107589838, 6.396010805501793 ], [ 2.329680891833724, 6.396002374238595 ], [ 2.329688901617868, 6.396000772069073 ], [ 2.329697655068108, 6.395986102535757 ], [ 2.329705280834383, 6.39598468385543 ], [ 2.329709005559288, 6.395993646517987 ], [ 2.329731045757642, 6.395997831340257 ], [ 2.329734276378949, 6.39600138116447 ], [ 2.329740037605765, 6.395993378065544 ], [ 2.329732131685605, 6.395989693098425 ], [ 2.329731817460787, 6.395984931723869 ], [ 2.329741156985166, 6.395981251887246 ], [ 2.329751600598861, 6.395986553058451 ], [ 2.329783603215008, 6.395977636973637 ], [ 2.329804838665677, 6.395979309659204 ], [ 2.329805737645622, 6.39596301693207 ], [ 2.329811083528917, 6.395957726227359 ], [ 2.329806158872056, 6.395948151357222 ], [ 2.329817809186145, 6.395934419962639 ], [ 2.329814746350644, 6.395922410313891 ], [ 2.329819662546274, 6.395910844164093 ], [ 2.329801469589304, 6.395901223678325 ], [ 2.329796102349424, 6.39592225933605 ], [ 2.329745996853374, 6.39592993409452 ], [ 2.329740994793364, 6.395922948325479 ], [ 2.329730403086884, 6.395917410345789 ], [ 2.329707152304714, 6.395917540225032 ], [ 2.329707601967228, 6.395904534203692 ], [ 2.329703835943941, 6.395901548596172 ], [ 2.32968554334516, 6.395902218256109 ], [ 2.329683761516827, 6.395892746289187 ], [ 2.329687447021182, 6.395884357750887 ], [ 2.329716687595949, 6.395869911127848 ], [ 2.329730617627369, 6.395876922781297 ], [ 2.329758399687991, 6.395850135437507 ], [ 2.329770105871535, 6.395844272056823 ], [ 2.329782459150225, 6.395845592145608 ], [ 2.329784098875724, 6.39584910123214 ], [ 2.329770203011726, 6.395864102255032 ], [ 2.329771572905497, 6.395866123297805 ], [ 2.329796106026359, 6.395868416296112 ], [ 2.329801867032979, 6.395855113713446 ], [ 2.329814724361522, 6.395859982444962 ], [ 2.329829697721178, 6.395850993906066 ], [ 2.329850278551167, 6.395864967019955 ], [ 2.329855069157041, 6.395856624575717 ], [ 2.329850252053333, 6.395843441264523 ], [ 2.329855092063772, 6.395839037518135 ], [ 2.329866568464506, 6.395837947462319 ], [ 2.329890716159017, 6.395843458001307 ], [ 2.329895916965754, 6.395867287523997 ], [ 2.329899675141283, 6.395866840219241 ], [ 2.329902174593059, 6.395856206639876 ], [ 2.329906559923677, 6.395854345773873 ], [ 2.329913102825883, 6.395860579500924 ], [ 2.329921976606708, 6.395859473842204 ], [ 2.329935387591918, 6.395865688427459 ], [ 2.329952578402319, 6.395878568722594 ], [ 2.329976553840452, 6.395850496952125 ], [ 2.329968422814409, 6.395841312508402 ], [ 2.329961140116127, 6.395839407946347 ], [ 2.329954016073725, 6.395850112656096 ], [ 2.329948354743617, 6.395850105277644 ], [ 2.329939266150255, 6.39584149642724 ], [ 2.329939332439964, 6.395834943749786 ], [ 2.329982810814295, 6.395826810505334 ], [ 2.329985306730563, 6.395831996402769 ], [ 2.329981287934883, 6.395848791589161 ], [ 2.330003828193068, 6.39584331341153 ], [ 2.330004012722412, 6.39583193147064 ], [ 2.330010710690186, 6.395821071099093 ], [ 2.330020139788013, 6.395815738062062 ], [ 2.330029461237176, 6.395815910402369 ], [ 2.330033855249387, 6.395809291351053 ], [ 2.330046060643333, 6.39580396430545 ], [ 2.330055977477604, 6.39580463987543 ], [ 2.330074270763871, 6.39579831862328 ], [ 2.330083924390784, 6.395786427969671 ], [ 2.330101875457837, 6.395778005447314 ], [ 2.330122080420343, 6.395759211753407 ], [ 2.330142572697279, 6.395749964104191 ], [ 2.330153256454873, 6.395729464728353 ], [ 2.330160556153198, 6.395723085624613 ], [ 2.330167405067634, 6.395720295070602 ], [ 2.330180613844302, 6.395722259975538 ], [ 2.330190996579391, 6.395734257849421 ], [ 2.330202556681336, 6.395702338994871 ], [ 2.330208966341587, 6.395696016499768 ], [ 2.330219052037967, 6.395693086135053 ], [ 2.330242370045805, 6.395669915715545 ], [ 2.330271548204076, 6.395652908432239 ], [ 2.330276330982806, 6.395639631474439 ], [ 2.33028903535328, 6.395635930290851 ], [ 2.330289290097529, 6.395645667802385 ], [ 2.330270809333825, 6.395673287931345 ], [ 2.33027348115935, 6.395689732278618 ], [ 2.330269840261778, 6.395708231240794 ], [ 2.330278532753569, 6.3957361229297 ], [ 2.330285992168154, 6.395748013043626 ], [ 2.330279392858529, 6.395770003287565 ], [ 2.3302904783178, 6.395774806051701 ], [ 2.330294067891662, 6.395784796845139 ], [ 2.330297708534377, 6.395817856910706 ], [ 2.330290615891925, 6.395831101353317 ], [ 2.330302696239894, 6.395840305181411 ], [ 2.330313706421662, 6.395831347471627 ], [ 2.330330119796811, 6.395829767712713 ], [ 2.330328846222604, 6.395821519222975 ], [ 2.330325046353404, 6.395818700551652 ], [ 2.33031945293333, 6.395826652890994 ], [ 2.330314080712503, 6.395824873086842 ], [ 2.330311749684157, 6.395812793623318 ], [ 2.33032035261209, 6.395802819729268 ], [ 2.330312758562892, 6.395787688273479 ], [ 2.330328490779883, 6.395783813373968 ], [ 2.33034870610838, 6.395795216800139 ], [ 2.330360088927952, 6.395825343163274 ], [ 2.330354037028751, 6.395843970294337 ], [ 2.330348855954454, 6.395842087863249 ], [ 2.330341458278425, 6.395830479213883 ], [ 2.330338393729871, 6.395835841857393 ], [ 2.330342420322778, 6.395840705800142 ], [ 2.330339139353096, 6.395847049442819 ], [ 2.330310323786967, 6.395850802049831 ], [ 2.330305504948351, 6.39585439915439 ], [ 2.33029992803674, 6.395864256138527 ], [ 2.330292849440739, 6.395923497753428 ], [ 2.33027732010508, 6.395932665615566 ], [ 2.330282192171856, 6.395944053013783 ], [ 2.330279328425622, 6.395949535413076 ], [ 2.330268204337695, 6.395950701172212 ], [ 2.330271660929918, 6.395959568858858 ], [ 2.330279315727761, 6.395959290438129 ], [ 2.330284402605807, 6.395967634279565 ], [ 2.330279434539634, 6.395978636865457 ], [ 2.330285210518477, 6.395990249734012 ], [ 2.33028429842292, 6.39599631146093 ], [ 2.330279445184269, 6.396000242133202 ], [ 2.330278803189433, 6.396009670243382 ], [ 2.330272231989394, 6.396021002770959 ], [ 2.330290559893154, 6.396027165644997 ], [ 2.330296306584284, 6.396033753592801 ], [ 2.330319419554887, 6.396039820614357 ], [ 2.330324935569231, 6.396047270726062 ], [ 2.330318916390773, 6.396051957433403 ], [ 2.330310991897423, 6.396047645074993 ], [ 2.330280510533238, 6.396043767744748 ], [ 2.330261404271349, 6.396047898941567 ], [ 2.330257809497696, 6.396050715102349 ], [ 2.330253143537234, 6.396086992003493 ], [ 2.330264125530767, 6.396096567921935 ], [ 2.330279494364489, 6.396101648436933 ], [ 2.330301232174122, 6.396102750907031 ], [ 2.330313014318076, 6.396108475151705 ], [ 2.330320323661047, 6.396106151643576 ], [ 2.330327349931645, 6.396095013986034 ], [ 2.330345916673303, 6.39609491590674 ], [ 2.33035027532096, 6.396085681319442 ], [ 2.330355931218878, 6.396086825299544 ], [ 2.33035031433496, 6.396111022614603 ], [ 2.330352038392825, 6.396120515476152 ], [ 2.330340197113763, 6.396116284273893 ], [ 2.33033756611977, 6.396124346457032 ], [ 2.330350617741657, 6.396126140673369 ], [ 2.330355225467884, 6.39612209623422 ], [ 2.330360934043313, 6.396126317526083 ], [ 2.330361861316956, 6.39615995926463 ], [ 2.330357781815551, 6.396168085413185 ], [ 2.330352146703524, 6.396167687199782 ], [ 2.330351817091869, 6.396160154420819 ], [ 2.330345300224446, 6.396153449480082 ], [ 2.330345960929808, 6.396143886863668 ], [ 2.33034206389819, 6.396142208239668 ], [ 2.330351396798165, 6.396135715509371 ], [ 2.330337769167828, 6.396127952138071 ], [ 2.330332122904708, 6.396138162089563 ], [ 2.330337920796711, 6.39614388277791 ], [ 2.330338056774396, 6.396160983473275 ], [ 2.330343013134598, 6.396173867660699 ], [ 2.33035767198119, 6.396201106847542 ], [ 2.33035368180832, 6.396247281268031 ], [ 2.330356157897395, 6.396260019441413 ], [ 2.330346129630464, 6.396275045415091 ], [ 2.330344036278779, 6.396297320481434 ], [ 2.330330394516277, 6.39631734368079 ], [ 2.330318167919602, 6.396328618590326 ], [ 2.330287258023558, 6.396346214249991 ], [ 2.330262338307103, 6.396350318483897 ], [ 2.330239009326118, 6.396344342578627 ], [ 2.330229581013396, 6.396336867980498 ], [ 2.330177331010103, 6.396313618043491 ], [ 2.330133020642618, 6.396329454289609 ], [ 2.330122657231829, 6.396353953535573 ], [ 2.330113948771381, 6.396393621381869 ], [ 2.330112524776112, 6.396405197398581 ], [ 2.330116771578148, 6.396431996991359 ], [ 2.330112286740315, 6.396442785859975 ], [ 2.330105755497218, 6.396447121382769 ], [ 2.330104661620061, 6.396460325987302 ], [ 2.330083548904716, 6.396488242937773 ], [ 2.330084276396884, 6.396502433005558 ], [ 2.330076180760247, 6.396540187698908 ], [ 2.330084559739128, 6.396556995763614 ], [ 2.330082017678633, 6.396571228938798 ], [ 2.330088694858952, 6.39662160465723 ], [ 2.330083259221622, 6.396644476625955 ], [ 2.330085959788222, 6.396653731997176 ], [ 2.330083320592264, 6.396663573587146 ], [ 2.330093084289878, 6.396671325656333 ], [ 2.330095398008784, 6.396681809385645 ], [ 2.330092411689292, 6.396690018182703 ], [ 2.330102486280635, 6.396701707538185 ], [ 2.33010343551151, 6.396707535526783 ], [ 2.33009810382513, 6.396716805018965 ], [ 2.330100019405304, 6.396726251440478 ], [ 2.330112323653587, 6.396726095807498 ], [ 2.330128331977714, 6.396750118711552 ], [ 2.330112477698671, 6.396788554317357 ], [ 2.330110187530932, 6.396824084161919 ], [ 2.330119546940098, 6.396833701098863 ], [ 2.330122785941281, 6.396842886401863 ], [ 2.33011471117209, 6.396860662840488 ], [ 2.330118655384215, 6.396875326995836 ], [ 2.330111063329853, 6.396884480830599 ], [ 2.330112033991671, 6.396897546868381 ], [ 2.330115232773062, 6.396909973794333 ], [ 2.3301234276662, 6.396914131855697 ], [ 2.330125910778412, 6.396928807729559 ], [ 2.330140198805374, 6.396944970004308 ], [ 2.330144031551221, 6.396955963537271 ], [ 2.33015300227482, 6.396950341114419 ], [ 2.330158723237584, 6.396954038208726 ], [ 2.33015914636811, 6.396976288854464 ], [ 2.330152686329711, 6.396978233275781 ], [ 2.330148642249628, 6.39697520660993 ], [ 2.33014792592313, 6.396979435698437 ], [ 2.330165013409053, 6.396995139129954 ], [ 2.330170010738872, 6.397004206777202 ], [ 2.330168597593903, 6.397020208407787 ], [ 2.330157050222518, 6.397026869236226 ], [ 2.330153310004357, 6.397038691341758 ], [ 2.330157785035941, 6.397046374623161 ], [ 2.33016738772803, 6.397045322537336 ], [ 2.330169084676214, 6.397048638154735 ], [ 2.330168458183606, 6.397075929724675 ], [ 2.330164075023061, 6.397076680435767 ], [ 2.330161155715046, 6.397066495954263 ], [ 2.330157377585169, 6.397067374522852 ], [ 2.33015706162918, 6.397076439089941 ], [ 2.330162233029028, 6.397087582520398 ], [ 2.330159611376163, 6.397098836533613 ], [ 2.330172082587555, 6.397110517932713 ], [ 2.3301795429383, 6.397135110778247 ], [ 2.330184573204086, 6.397137070172882 ], [ 2.330196519448357, 6.397130754894891 ], [ 2.330203564466561, 6.397134833904133 ], [ 2.330205170776332, 6.397167049598355 ], [ 2.330214940997567, 6.397180737294281 ], [ 2.330215534290942, 6.397193829350732 ], [ 2.33022265332854, 6.397211677648774 ], [ 2.330211029919778, 6.397232375501815 ], [ 2.330227226421855, 6.39725281776535 ], [ 2.330238266427455, 6.397257917176195 ], [ 2.330245789938184, 6.397272286692946 ], [ 2.330259059827015, 6.397284205294319 ], [ 2.330271060014303, 6.397308948081166 ], [ 2.330289877915189, 6.397314471052233 ], [ 2.33030933305475, 6.39730649562554 ], [ 2.330322343548432, 6.397309821573926 ], [ 2.330323733045987, 6.397307423937395 ], [ 2.330315241035122, 6.397298420359838 ], [ 2.330318102674037, 6.39729061306875 ], [ 2.330323429892557, 6.397287382573469 ], [ 2.330344999146122, 6.397305132858878 ], [ 2.330346345195584, 6.39731301549747 ], [ 2.330334962443692, 6.397325665127809 ], [ 2.330326752782203, 6.397319127386806 ], [ 2.33032032945818, 6.397320475627698 ], [ 2.330317909451847, 6.397332375707314 ], [ 2.330200814775136, 6.397332223132403 ], [ 2.3301892722628, 6.397328810462121 ], [ 2.330148969126065, 6.397332375565624 ], [ 2.330116751279514, 6.39732962035841 ], [ 2.330085686914845, 6.397332293091118 ], [ 2.329747587135687, 6.397331766062324 ], [ 2.329724450796885, 6.397330845730056 ], [ 2.329719354541349, 6.397327745675399 ], [ 2.329694925167025, 6.397331697388402 ], [ 2.329444446526712, 6.397331236938397 ] ] ] } }
]
}
